{
  "type": "FeatureCollection",
  "features": [
    {
      "type": "Feature",
      "properties": {
        "norad_id": 28054,
        "name": "DMSP 5D-3 F16 (USA 172)",
        "group": "weather",
        "lat": 37.58611432663271,
        "lon": -159.76295703823135,
        "alt_km": 845.4104830734996,
        "timestamp": "2025-12-21T16:47:54.371391+00:00",
        "meta_object_name": "DMSP 5D-3 F16 (USA 172)",
        "meta_object_id": "2003-048A",
        "meta_epoch": "2025-12-21T11:32:20.019264",
        "meta_mean_motion": 14.14427141,
        "meta_eccentricity": 0.0006274,
        "meta_inclination": 99.0038,
        "meta_ra_of_asc_node": 13.0063,
        "meta_arg_of_pericenter": 292.9776,
        "meta_mean_anomaly": 173.5663,
        "meta_ephemeris_type": 0,
        "meta_classification_type": "U",
        "meta_norad_cat_id": 28054,
        "meta_element_set_no": 999,
        "meta_rev_at_epoch": 14436,
        "meta_bstar": 7.2947e-05,
        "meta_mean_motion_dot": 9.4e-07,
        "meta_mean_motion_ddot": 0,
        "tle_line1": "1 28054U 03048A   25355.48078726  .00000094  00000+0  72947-4 0  9991",
        "tle_line2": "2 28054  99.0038  13.0063 0006274 292.9776 173.5663 14.14427141144362"
      },
      "geometry": {
        "type": "Point",
        "coordinates": [
          -159.76295703823135,
          37.58611432663271
        ]
      }
    },
    {
      "type": "Feature",
      "properties": {
        "norad_id": 28912,
        "name": "METEOSAT-9 (MSG-2)",
        "group": "weather",
        "lat": -4.182806854247158,
        "lon": 28.169840374804004,
        "alt_km": 35500.22911630792,
        "timestamp": "2025-12-21T16:47:54.371446+00:00",
        "meta_object_name": "METEOSAT-9 (MSG-2)",
        "meta_object_id": "2005-049B",
        "meta_epoch": "2025-12-20T18:34:58.766592",
        "meta_mean_motion": 1.00265537,
        "meta_eccentricity": 0.01042854,
        "meta_inclination": 8.9429,
        "meta_ra_of_asc_node": 55.8777,
        "meta_arg_of_pericenter": 282.8799,
        "meta_mean_anomaly": 74.1046,
        "meta_ephemeris_type": 0,
        "meta_classification_type": "U",
        "meta_norad_cat_id": 28912,
        "meta_element_set_no": 999,
        "meta_rev_at_epoch": 520,
        "meta_bstar": 0,
        "meta_mean_motion_dot": 1.08e-06,
        "meta_mean_motion_ddot": 0,
        "tle_line1": "1 28912U 05049B   25354.77429128  .00000108  00000+0  00000+0 0  9996",
        "tle_line2": "2 28912   8.9429  55.8777 0104285 282.8799  74.1046  1.00265537  5208"
      },
      "geometry": {
        "type": "Point",
        "coordinates": [
          28.169840374804004,
          -4.182806854247158
        ]
      }
    },
    {
      "type": "Feature",
      "properties": {
        "norad_id": 29522,
        "name": "DMSP 5D-3 F17 (USA 191)",
        "group": "weather",
        "lat": 78.26290686684162,
        "lon": -131.33771250882148,
        "alt_km": 836.4658012917362,
        "timestamp": "2025-12-21T16:47:54.371469+00:00",
        "meta_object_name": "DMSP 5D-3 F17 (USA 191)",
        "meta_object_id": "2006-050A",
        "meta_epoch": "2025-12-21T11:14:44.016864",
        "meta_mean_motion": 14.14923282,
        "meta_eccentricity": 0.000977,
        "meta_inclination": 98.739,
        "meta_ra_of_asc_node": 0.6759,
        "meta_arg_of_pericenter": 198.6011,
        "meta_mean_anomaly": 161.4806,
        "meta_ephemeris_type": 0,
        "meta_classification_type": "U",
        "meta_norad_cat_id": 29522,
        "meta_element_set_no": 999,
        "meta_rev_at_epoch": 98728,
        "meta_bstar": 8.9762e-05,
        "meta_mean_motion_dot": 1.3e-06,
        "meta_mean_motion_ddot": 0,
        "tle_line1": "1 29522U 06050A   25355.46856501  .00000130  00000+0  89762-4 0  9995",
        "tle_line2": "2 29522  98.7390   0.6759 0009770 198.6011 161.4806 14.14923282987280"
      },
      "geometry": {
        "type": "Point",
        "coordinates": [
          -131.33771250882148,
          78.26290686684162
        ]
      }
    },
    {
      "type": "Feature",
      "properties": {
        "norad_id": 32958,
        "name": "FENGYUN 3A",
        "group": "weather",
        "lat": -39.56430948360279,
        "lon": -57.718519477131196,
        "alt_km": 829.1008177885633,
        "timestamp": "2025-12-21T16:47:54.371486+00:00",
        "meta_object_name": "FENGYUN 3A",
        "meta_object_id": "2008-026A",
        "meta_epoch": "2025-12-21T08:31:42.761856",
        "meta_mean_motion": 14.19517074,
        "meta_eccentricity": 0.0007655,
        "meta_inclination": 98.6709,
        "meta_ra_of_asc_node": 294.701,
        "meta_arg_of_pericenter": 282.6439,
        "meta_mean_anomaly": 77.3881,
        "meta_ephemeris_type": 0,
        "meta_classification_type": "U",
        "meta_norad_cat_id": 32958,
        "meta_element_set_no": 999,
        "meta_rev_at_epoch": 91017,
        "meta_bstar": 5.6292e-05,
        "meta_mean_motion_dot": 7.5e-07,
        "meta_mean_motion_ddot": 0,
        "tle_line1": "1 32958U 08026A   25355.35535604  .00000075  00000+0  56292-4 0  9993",
        "tle_line2": "2 32958  98.6709 294.7010 0007655 282.6439  77.3881 14.19517074910179"
      },
      "geometry": {
        "type": "Point",
        "coordinates": [
          -57.718519477131196,
          -39.56430948360279
        ]
      }
    },
    {
      "type": "Feature",
      "properties": {
        "norad_id": 35491,
        "name": "GOES 14",
        "group": "weather",
        "lat": 0.740364544597811,
        "lon": -132.91830589482427,
        "alt_km": 35833.408625246746,
        "timestamp": "2025-12-21T16:47:54.371504+00:00",
        "meta_object_name": "GOES 14",
        "meta_object_id": "2009-033A",
        "meta_epoch": "2025-12-21T12:09:15.385248",
        "meta_mean_motion": 1.00096928,
        "meta_eccentricity": 5.36e-05,
        "meta_inclination": 1.2252,
        "meta_ra_of_asc_node": 85.3172,
        "meta_arg_of_pericenter": 184.7328,
        "meta_mean_anomaly": 247.3042,
        "meta_ephemeris_type": 0,
        "meta_classification_type": "U",
        "meta_norad_cat_id": 35491,
        "meta_element_set_no": 999,
        "meta_rev_at_epoch": 481,
        "meta_bstar": 0,
        "meta_mean_motion_dot": 2.4e-07,
        "meta_mean_motion_ddot": 0,
        "tle_line1": "1 35491U 09033A   25355.50642807  .00000024  00000+0  00000+0 0  9993",
        "tle_line2": "2 35491   1.2252  85.3172 0000536 184.7328 247.3042  1.00096928  4819"
      },
      "geometry": {
        "type": "Point",
        "coordinates": [
          -132.91830589482427,
          0.740364544597811
        ]
      }
    },
    {
      "type": "Feature",
      "properties": {
        "norad_id": 35951,
        "name": "DMSP 5D-3 F18 (USA 210)",
        "group": "weather",
        "lat": -39.01152103183502,
        "lon": -20.663900233212964,
        "alt_km": 847.7818676341403,
        "timestamp": "2025-12-21T16:47:54.371519+00:00",
        "meta_object_name": "DMSP 5D-3 F18 (USA 210)",
        "meta_object_id": "2009-057A",
        "meta_epoch": "2025-12-21T11:53:34.547136",
        "meta_mean_motion": 14.14774701,
        "meta_eccentricity": 0.0011833,
        "meta_inclination": 98.8844,
        "meta_ra_of_asc_node": 331.8529,
        "meta_arg_of_pericenter": 39.6746,
        "meta_mean_anomaly": 320.529,
        "meta_ephemeris_type": 0,
        "meta_classification_type": "U",
        "meta_norad_cat_id": 35951,
        "meta_element_set_no": 999,
        "meta_rev_at_epoch": 83446,
        "meta_bstar": 0.00014744,
        "meta_mean_motion_dot": 2.4e-06,
        "meta_mean_motion_ddot": 0,
        "tle_line1": "1 35951U 09057A   25355.49553874  .00000240  00000+0  14744-3 0  9997",
        "tle_line2": "2 35951  98.8844 331.8529 0011833  39.6746 320.5290 14.14774701834460"
      },
      "geometry": {
        "type": "Point",
        "coordinates": [
          -20.663900233212964,
          -39.01152103183502
        ]
      }
    },
    {
      "type": "Feature",
      "properties": {
        "norad_id": 36411,
        "name": "EWS-G2 (GOES 15)",
        "group": "weather",
        "lat": -0.5429717834818648,
        "lon": 43.88941391568261,
        "alt_km": 35804.027676119724,
        "timestamp": "2025-12-21T16:47:54.371535+00:00",
        "meta_object_name": "EWS-G2 (GOES 15)",
        "meta_object_id": "2010-008A",
        "meta_epoch": "2025-12-21T11:46:40.909728",
        "meta_mean_motion": 1.00270942,
        "meta_eccentricity": 0.0005454,
        "meta_inclination": 0.834,
        "meta_ra_of_asc_node": 86.0823,
        "meta_arg_of_pericenter": 177.9274,
        "meta_mean_anomaly": 64.3316,
        "meta_ephemeris_type": 0,
        "meta_classification_type": "U",
        "meta_norad_cat_id": 36411,
        "meta_element_set_no": 999,
        "meta_rev_at_epoch": 5785,
        "meta_bstar": 0,
        "meta_mean_motion_dot": 6e-07,
        "meta_mean_motion_ddot": 0,
        "tle_line1": "1 36411U 10008A   25355.49075127  .00000060  00000+0  00000+0 0  9993",
        "tle_line2": "2 36411   0.8340  86.0823 0005454 177.9274  64.3316  1.00270942 57857"
      },
      "geometry": {
        "type": "Point",
        "coordinates": [
          43.88941391568261,
          -0.5429717834818648
        ]
      }
    }
  ]
}